#aV2015 11  3  0  0  0.00000000     288 DD+AD WGS84 FIT  NGA
## 1869 172800.00000000   300.00000000 57329 0.0000000000000
+   31     1  2  3  4  5  6  7  8  9 11 12 13 14 15 16 17 18
+         19 20 21 22 23 24 25 26 27 28 29 30 31 32  0  0  0
+          0  0  0  0  0  0  0  0  0  0  0  0  0  0  0  0  0
+          0  0  0  0  0  0  0  0  0  0  0  0  0  0  0  0  0
+          0  0  0  0  0  0  0  0  0  0  0  0  0  0  0  0  0
++         2  2  2  2  2  2  2  2  2  2  2  2  2  2  2  2  2
++         2  2  2  2  2  2  2  2  2  2  2  2  2  2  0  0  0
++         0  0  0  0  0  0  0  0  0  0  0  0  0  0  0  0  0
++         0  0  0  0  0  0  0  0  0  0  0  0  0  0  0  0  0
++         0  0  0  0  0  0  0  0  0  0  0  0  0  0  0  0  0
%c cc cc ccc ccc cccc cccc cccc cccc ccccc ccccc ccccc ccccc
%c cc cc ccc ccc cccc cccc cccc cccc ccccc ccccc ccccc ccccc
%f  0.0000000  0.000000000  0.00000000000  0.000000000000000
%f  0.0000000  0.000000000  0.00000000000  0.000000000000000
%i    0    0    0    0      0      0      0      0         0
%i    0    0    0    0      0      0      0      0         0
/*      NGA, ST. LOUIS,MO.                                  
/*   EPHEMERIS COMPUTED FROM 2 DAYS OF DATA                 
/*   EPOCHA v2.4 SMOOTHER                                   
/*   G1762 IERS2010 SATAF SATAPC                            
*  2015 11  3 22 15  0.00000000
P  1 -13693.958188  20395.776596   9755.090908      3.707801                    
V  1   1328.791654 -12764.184034  28536.161766      0.007933                    
P  2  15386.172062   2096.901228 -21132.713029    594.801172                    
V  2  -6955.954433  26982.208908  -2772.479836      0.011060                    
P  3 -19878.828544  12977.284461 -11926.127547     16.492407                    
V  3 -15303.975715    952.611651  26516.492075     -0.027348                    
P  4 -16190.921494  12430.245960  16502.214808    -41.387293                    
V  4   3791.344978 -21595.351966  19821.125157     -0.053558                    
P  5  25856.353337  -1209.693883  -6461.707378   -178.349971                    
V  5  -7218.138657   4701.736738 -29873.387858      0.038596                    
P  6   9598.590885  15106.141680 -19628.503742     88.722211                    
V  6  -8571.535984  23422.179577  13825.795393      0.068248                    
P  7  -5018.295721  25397.897114   5041.486352    481.301702                    
V  7  -4708.442308   5054.375818 -31310.916389     -0.009585                    
P  8 -16272.019873   3713.798727  20705.417237    -11.145362                    
V  8 -17155.091168 -19803.675075  -9960.885662     -0.014121                    
P  9   2792.824561  20402.192117 -16778.324029      5.260590                    
V  9 -15869.076479 -14336.486386 -20096.252608      0.051313                    
P 11 -11698.044050  17442.943717  15664.094871   -614.082702                    
V 11  -4421.448278 -20965.512004  19445.349660     -0.021794                    
P 12  21962.080128 -10628.878705 -10331.144813    342.424517                    
V 12  13113.119924   -419.960752  28801.340294      0.031800                    
P 13  19181.670262   6783.429516  16885.059090   -161.639274                    
V 13  11470.160443  18502.659459 -20402.349548     -0.028119                    
P 14 -14163.032748 -22282.674494   3812.043262     23.973613                    
V 14   4732.493613   2011.468632  31278.926461     -0.024119                    
P 15  15648.574695  -6021.131736  20555.870847   -280.291066                    
V 15  18270.233640  19048.357595  -7949.560199     -0.019680                    
P 16 -25861.800919   -653.164258  -6909.028432    -70.015296                    
V 16   8236.955167  -2721.327229 -30576.363986      0.036882                    
P 17  14832.351979  21869.607107   3948.077799   -192.906352                    
V 17  -4595.084925  -2141.035752  31397.053595     -0.011048                    
P 18    898.748901 -16646.620740  21149.643453    449.383036                    
V 18  25310.656209  -5479.399186  -5804.953652      0.037894                    
P 19  -1097.929788  19033.201258  18102.016662   -522.335081                    
V 19 -15555.904149 -17758.322910  17932.999361     -0.004535                    
P 20  21493.051722 -13141.379202   8372.977189    368.238927                    
V 20  11447.301846    230.370720 -28409.625668      0.029246                    
P 21    639.066338 -25152.850263   8698.062719   -491.125295                    
V 21   6170.480348  -8842.098781 -28685.777848     -0.024807                    
P 22 -13753.430590 -11904.356617  19643.180811    407.156660                    
V 22  23466.226540  -7292.292056  11979.796704      0.034426                    
P 23  -9737.342087  12093.910788 -21353.294153   -142.486420                    
V 23 -18997.019339 -20019.803221  -3084.119096     -0.020600                    
P 24  14512.318058 -18440.760870  12242.790182     -7.404541                    
V 24  -1832.198054  15808.140684  26073.984160     -0.005828                    
P 25  10349.718912 -15402.985671 -19033.381612    -62.120804                    
V 25  23667.942748  -4003.481412  16357.156401     -0.056388                    
P 26 -20512.281228  -6507.626927 -15573.710881   -108.505284                    
V 26  18850.153773  -6294.189157 -22179.084606     -0.146787                    
P 27 -20824.399324  -7726.676832  14632.907713     32.927735                    
V 27 -11259.296180 -14862.348819 -23705.431696      0.031498                    
P 28   9284.763669  13113.611454  21796.547760    478.962041                    
V 28 -25775.722540   4155.533606   8660.942773      0.025670                    
P 29    469.817192 -19109.360854 -18442.272790    642.810816                    
V 29  15838.002691  17266.159125 -17438.175017      0.017498                    
P 30   2440.905848  22003.476148  14615.113391     51.483904                    
V 30  -8971.916807  16460.622298 -23364.095611      0.058110                    
P 31  -9702.625660 -13902.476384 -20222.906775    296.674276                    
V 31   9677.917985 -24189.169438  12246.471756     -0.014727                    
P 32 -25682.751947   5103.679767  -2092.435401      5.877339                    
V 32  -3119.729274  -3311.726200  31648.517510      0.117105                    
EOF
